COSMOS 2425 (716)       
1 29670U 06062A   18108.62342117  .00000020  00000-0  10000-3 0  9998
2 29670  65.3082 294.5484 0021856 351.9442 104.2914  2.13104962 88045
COSMOS 2426 (717)       
1 29671U 06062B   18108.83317755  .00000020  00000-0  10000-3 0  9992
2 29671  65.3258 294.6384 0017318 157.4409 315.8988  2.13103006 88051
COSMOS 2433 (720)       
1 32275U 07052A   18108.48833648 -.00000014  00000-0  10000-3 0  9995
2 32275  65.6614  55.3642 0004574 290.9251 253.2179  2.13104611 81559
COSMOS 2432 (719)       
1 32276U 07052B   18109.02112266 -.00000013  00000-0  10000-3 0  9992
2 32276  65.6744  55.4216 0013564 331.3942 213.5709  2.13104008 81567
COSMOS 2434 (721)       
1 32393U 07065A   18108.63119428  .00000019  00000-0  00000+0 0  9999
2 32393  64.9243 293.5520 0005792  94.2030  87.7575  2.13102929 80261
COSMOS 2436 (723)       
1 32395U 07065C   18108.76438179  .00000020  00000-0  10000-3 0  9999
2 32395  64.9358 293.5970 0016265   7.3820 326.9574  2.13104326 80190
COSMOS 2456 (730)       
1 36111U 09070A   18108.79384485  .00000051  00000-0  00000+0 0  9999
2 36111  64.1828 173.1309 0005228 308.1894 170.6409  2.13102873 64933
COSMOS 2457 (733)       
1 36112U 09070B   18109.31271399  .00000046  00000-0  00000+0 0  9992
2 36112  64.1647 173.0250 0005801 179.7654 104.2955  2.13101562 64944
COSMOS 2458 (734)       
1 36113U 09070C   18109.35872455  .00000045  00000-0  10000-3 0  9991
2 36113  64.1701 173.0342 0001977 332.5430  35.1887  2.13102160 64951
COSMOS 2459 (731)       
1 36400U 10007A   18108.63960000 -.00000015  00000-0  10000-3 0  9994
2 36400  65.5715  54.4277 0029012 349.1222 170.4769  2.13102273 63284
COSMOS 2461 (735)       
1 36401U 10007B   18109.38381284 -.00000014  00000-0  10000-3 0  9998
2 36401  65.5640  54.3781 0006518  44.0069 237.1114  2.13102289 63290
COSMOS 2460 (732)       
1 36402U 10007C   18109.14838169 -.00000014  00000-0  10000-3 0  9992
2 36402  65.5541  54.3539 0002628 324.9812 176.2858  2.13101714 63296
COSMOS 2464 (736)       
1 37139U 10041C   18108.64439220  .00000018  00000-0  00000-0 0  9996
2 37139  64.5278 293.3862 0025137  16.3874  43.4890  2.13102709 59352
COSMOS 2471 (701K)      
1 37372U 11009A   18108.57290736 -.00000015  00000-0  00000-0 0  9997
2 37372  65.5520  54.3192 0008599 245.6237 316.8544  2.13107625 55559
COSMOS 2474 (742)       
1 37829U 11055A   18108.71078215  .00000052  00000-0  00000-0 0  9997
2 37829  64.5061 173.8272 0009463 250.6011  22.9303  2.13101950 50927
COSMOS 2476 (744)       
1 37867U 11064A   18108.90872465  .00000050  00000-0  00000-0 0  9997
2 37867  64.4870 173.8833 0019020 243.5741 227.8383  2.13102017 50288
COSMOS 2477 (745)       
1 37868U 11064B   18109.45235524  .00000044  00000-0  00000+0 0  9990
2 37868  64.4949 173.9121 0016907 245.1809 102.2225  2.13101788 50242
COSMOS 2475 (743)       
1 37869U 11064C   18109.38398015  .00000045  00000-0  00000+0 0  9999
2 37869  64.5024 173.9093 0021365 268.7642 342.8400  2.13101948 50252
COSMOS 2485 (747)       
1 39155U 13019A   18108.63757584  .00000053  00000-0  00000+0 0  9997
2 39155  64.6557 173.9886 0019374 238.5674  69.7327  2.13101983 38743
COSMOS 2492 (754)       
1 39620U 14012A   18108.57345567 -.00000015  00000-0  10000-3 0  9999
2 39620  65.4441  54.2669 0016997 328.1273 325.6810  2.13103475 31696
COSMOS 2500 (755)       
1 40001U 14032A   18108.71358940 -.00000015  00000-0  00000+0 0  9996
2 40001  65.3842  54.2368 0005455 232.1099  31.5875  2.13102843 29912
COSMOS 2501 (702K)      
1 40315U 14075A   18108.67188999  .00000017  00000-0  00000+0 0  9992
2 40315  64.2520 294.6200 0014250 203.9710 190.0373  2.13098557 26327
COSMOS 2514 (751)       
1 41330U 16008A   18108.61981041 -.00000016  00000-0  00000+0 0  9991
2 41330  65.1863  54.3087 0009071 232.6817 139.8308  2.13103344 17084
COSMOS 2516 (753)       
1 41554U 16032A   18108.96556569  .00000018  00000-0  00000+0 0  9998
2 41554  64.4734 294.4587 0009987 213.9736 315.1002  2.13101670 14695
COSMOS 2522 (752)       
1 42939U 17055A   18109.15673573  .00000019  00000-0  00000+0 0  9990
2 42939  64.7035 294.4005 0004982 249.5686 292.5881  2.13101948  4458
